{"epoch":1784902576,"count":18312,"objects":[{"id":"55797","name":"ONEWEB-0534","type":"PAYLOAD","l1":"1 55797U 23029B   26205.12320636  .00000053  00000-0  98111-4 0  9999","l2":"2 55797  87.9166 267.1063 0002132  99.7699 260.3675 13.20769898166021"},{"id":"55798","name":"ONEWEB-0556","type":"PAYLOAD","l1":"1 55798U 23029C   26205.20570587  .00000067  00000-0  13169-3 0  9995","l2":"2 55798  87.9165 267.0882 0001577 119.3978 240.7313 13.20771656166037"},{"id":"55799","name":"ONEWEB-0562","type":"PAYLOAD","l1":"1 55799U 23029D   26205.19222764  .00000046  00000-0  81067-4 0  9995","l2":"2 55799  87.9164 267.0711 0001194  97.1715 262.9555 13.20772760166036"},{"id":"55800","name":"ONEWEB-0563","type":"PAYLOAD","l1":"1 55800U 23029E   26205.18718801  .00000099  00000-0  21106-3 0  9994","l2":"2 55800  87.9171 267.1037 0002358 102.6157 257.5240 13.20770802166029"},{"id":"55801","name":"ONEWEB-0564","type":"PAYLOAD","l1":"1 55801U 23029F   26205.18044738  .00000066  00000-0  13146-3 0  9995","l2":"2 55801  87.9164 267.0784 0001671  94.6607 265.4717 13.20773180166037"},{"id":"55802","name":"ONEWEB-0638","type":"PAYLOAD","l1":"1 55802U 23029G   26205.23406504 -.00000074  00000-0 -23302-3 0  9991","l2":"2 55802  87.8951 282.3671 0001675 109.5021 250.6290 13.14504764164264"},{"id":"55803","name":"ONEWEB-0639","type":"PAYLOAD","l1":"1 55803U 23029H   26205.25795194  .00000035  00000-0  55387-4 0  9994","l2":"2 55803  87.9182 297.5946 0002880 112.1878 247.9561 13.19724239163797"},{"id":"55804","name":"ONEWEB-0640","type":"PAYLOAD","l1":"1 55804U 23029J   26205.24359481 -.00000259  00000-0 -73252-3 0  9999","l2":"2 55804  87.8943 282.3550 0001914 118.2899 241.8424 13.14502899164289"},{"id":"55805","name":"ONEWEB-0641","type":"PAYLOAD","l1":"1 55805U 23029K   26205.25321960  .00000007  00000-0 -14648-4 0  9997","l2":"2 55805  87.9192 297.5877 0002061 103.7102 256.4260 13.19728138163805"},{"id":"55806","name":"ONEWEB-0642","type":"PAYLOAD","l1":"1 55806U 23029L   26205.24847981  .00000050  00000-0  91912-4 0  9999","l2":"2 55806  87.9194 297.5994 0002826 105.2738 254.8707 13.19726628163797"},{"id":"55807","name":"ONEWEB-0643","type":"PAYLOAD","l1":"1 55807U 23029M   26205.21347210  .00000004  00000-0 -24991-4 0  9990","l2":"2 55807  87.8954 282.3503 0002797 101.2131 258.9313 13.14503710164259"},{"id":"55808","name":"ONEWEB-0644","type":"PAYLOAD","l1":"1 55808U 23029N   26205.31956336 -.00000037  00000-0 -12412-3 0  9998","l2":"2 55808  87.9184 297.5846 0002329 101.7992 258.3402 13.19726050163807"},{"id":"55809","name":"ONEWEB-0645","type":"PAYLOAD","l1":"1 55809U 23029P   26205.26585707  .00000066  00000-0  13261-3 0  9996","l2":"2 55809  87.9185 297.5923 0002239 111.6489 248.4883 13.19726746163799"},{"id":"55810","name":"ONEWEB-0646","type":"PAYLOAD","l1":"1 55810U 23029Q   26205.28322829  .00000043  00000-0  74194-4 0  9992","l2":"2 55810  87.9182 297.5888 0002316 101.9913 258.1480 13.19724221163784"},{"id":"55811","name":"ONEWEB-0648","type":"PAYLOAD","l1":"1 55811U 23029R   26205.25786101 -.00000024  00000-0 -99253-4 0  9991","l2":"2 55811  87.8959 282.3176 0002656 115.7554 244.3850 13.14503920164267"},{"id":"55812","name":"ONEWEB-0649","type":"PAYLOAD","l1":"1 55812U 23029S   26205.30849778 -.00000028  00000-0 -10120-3 0  9997","l2":"2 55812  87.9180 297.5819 0002198 106.5186 253.6188 13.19723965163823"},{"id":"55813","name":"ONEWEB-0650","type":"PAYLOAD","l1":"1 55813U 23029T   26205.30376427  .00000049  00000-0  91074-4 0  9993","l2":"2 55813  87.9184 297.5853 0002616 105.3534 254.7888 13.19724364163794"},{"id":"55814","name":"ONEWEB-0652","type":"PAYLOAD","l1":"1 55814U 23029U   26205.23883622 -.00000174  00000-0 -50272-3 0  9991","l2":"2 55814  87.8960 282.3283 0002054  95.1792 264.9572 13.14502793164231"},{"id":"55815","name":"ONEWEB-0653","type":"PAYLOAD","l1":"1 55815U 23029V   26205.22298026  .00000046  00000-0  89330-4 0  9993","l2":"2 55815  87.8963 282.3298 0001962 100.1717 259.9634 13.14502430164266"},{"id":"55816","name":"ONEWEB-0654","type":"PAYLOAD","l1":"1 55816U 23029W   26205.21822154  .00000122  00000-0  29410-3 0  9995","l2":"2 55816  87.8965 282.3270 0001703  93.6738 266.4586 13.14502787164287"},{"id":"55817","name":"ONEWEB-0656","type":"PAYLOAD","l1":"1 55817U 23029X   26205.17372129  .00000338  00000-0  80000-3 0  9994","l2":"2 55817  87.9189 267.0609 0002041  89.4100 270.7267 13.20767879166036"},{"id":"55818","name":"ONEWEB-0657","type":"PAYLOAD","l1":"1 55818U 23029Y   26205.29903767  .00000020  00000-0  18586-4 0  9995","l2":"2 55818  87.9182 297.5845 0001907  76.6033 283.5312 13.19727153163807"},{"id":"55819","name":"ONEWEB-0658","type":"PAYLOAD","l1":"1 55819U 23029Z   26205.29428811  .00000012  00000-0 -35264-5 0  9993","l2":"2 55819  87.9193 297.5643 0002435 102.9534 257.1871 13.19726773163817"},{"id":"55820","name":"ONEWEB-0660","type":"PAYLOAD","l1":"1 55820U 23029AA  26205.19602261  .00000229  00000-0  58342-3 0  9996","l2":"2 55820  87.8968 282.3273 0002062 108.9050 251.2303 13.14502583164265"},{"id":"55821","name":"ONEWEB-0661","type":"PAYLOAD","l1":"1 55821U 23029AB  26205.23091053 -.00000098  00000-0 -29832-3 0  9991","l2":"2 55821  87.8946 282.3583 0001979 108.1973 251.9373 13.14502778164257"},{"id":"55822","name":"ONEWEB-0662","type":"PAYLOAD","l1":"1 55822U 23029AC  26205.26580332  .00000072  00000-0  15959-3 0  9993","l2":"2 55822  87.8948 282.3576 0002052 108.0996 252.0358 13.14503178164305"},{"id":"55823","name":"ONEWEB-0663","type":"PAYLOAD","l1":"1 55823U 23029AD  26205.20464631  .00000009  00000-0 -97970-5 0  9997","l2":"2 55823  87.9176 267.1245 0002320 106.6771 253.4617 13.20871916166037"},{"id":"55824","name":"ONEWEB-0664","type":"PAYLOAD","l1":"1 55824U 23029AE  26205.16025446 -.00000034  00000-0 -11584-3 0  9994","l2":"2 55824  87.9168 267.1110 0001717 109.3753 250.7566 13.20772298166024"},{"id":"55825","name":"ONEWEB-0665","type":"PAYLOAD","l1":"1 55825U 23029AF  26205.22774304 -.00000082  00000-0 -25661-3 0  9990","l2":"2 55825  87.8952 282.3407 0002142 107.5297 252.6067 13.14502713164277"},{"id":"55826","name":"ONEWEB-0666","type":"PAYLOAD","l1":"1 55826U 23029AG  26205.22926603 -.00000080  00000-0 -22922-3 0  9997","l2":"2 55826  87.9166 267.0872 0002274  79.9361 280.2029 13.20769548166042"}]}