OBJECT_NAME,OBJECT_ID,EPOCH,MEAN_MOTION,ECCENTRICITY,INCLINATION,RA_OF_ASC_NODE,ARG_OF_PERICENTER,MEAN_ANOMALY,EPHEMERIS_TYPE,CLASSIFICATION_TYPE,NORAD_CAT_ID,ELEMENT_SET_NO,REV_AT_EPOCH,BSTAR,MEAN_MOTION_DOT,MEAN_MOTION_DDOT
ONEWEB-0534,2023-029B,2026-07-24T02:57:25.029504,13.20769898,.0002132,87.9166,267.1063,99.7699,260.3675,0,U,55797,999,16602,.98111443E-4,.53E-6,0
ONEWEB-0556,2023-029C,2026-07-24T04:56:12.987168,13.20771656,.00015775,87.9165,267.0882,119.3978,240.7313,0,U,55798,999,16603,.13168956E-3,.67E-6,0
ONEWEB-0562,2023-029D,2026-07-24T04:36:48.468096,13.20772760,.00011939,87.9164,267.0711,97.1715,262.9555,0,U,55799,999,16603,.81067352E-4,.46E-6,0
ONEWEB-0563,2023-029E,2026-07-24T04:29:33.044064,13.20770802,.0002358,87.9171,267.1037,102.6157,257.5240,0,U,55800,999,16602,.21105544E-3,.99E-6,0
ONEWEB-0564,2023-029F,2026-07-24T04:19:50.653632,13.20773180,.0001671,87.9164,267.0784,94.6607,265.4717,0,U,55801,999,16603,.1314592E-3,.66E-6,0
ONEWEB-0638,2023-029G,2026-07-24T05:37:03.219456,13.14504764,.00016746,87.8951,282.3671,109.5021,250.6290,0,U,55802,999,16426,-.23301699E-3,-.74E-6,0
ONEWEB-0639,2023-029H,2026-07-24T06:11:27.047616,13.19724239,.00028805,87.9182,297.5946,112.1878,247.9561,0,U,55803,999,16379,.55386963E-4,.35E-6,0
ONEWEB-0640,2023-029J,2026-07-24T05:50:46.591584,13.14502899,.00019142,87.8943,282.3550,118.2899,241.8424,0,U,55804,999,16428,-.73252287E-3,-.259E-5,0
ONEWEB-0641,2023-029K,2026-07-24T06:04:38.173440,13.19728138,.00020611,87.9192,297.5877,103.7102,256.4260,0,U,55805,999,16380,-.14647778E-4,.7E-7,0
ONEWEB-0642,2023-029L,2026-07-24T05:57:48.655584,13.19726628,.00028258,87.9194,297.5994,105.2738,254.8707,0,U,55806,999,16379,.91912123E-4,.5E-6,0
ONEWEB-0643,2023-029M,2026-07-24T05:07:23.989440,13.14503710,.00027973,87.8954,282.3503,101.2131,258.9313,0,U,55807,999,16425,-.24991211E-4,.4E-7,0
ONEWEB-0644,2023-029N,2026-07-24T07:40:10.274304,13.19726050,.00023292,87.9184,297.5846,101.7992,258.3402,0,U,55808,999,16380,-.12411994E-3,-.37E-6,0
ONEWEB-0645,2023-029P,2026-07-24T06:22:50.050848,13.19726746,.00022391,87.9185,297.5923,111.6489,248.4883,0,U,55809,999,16379,.13261136E-3,.66E-6,0
ONEWEB-0646,2023-029Q,2026-07-24T06:47:50.924256,13.19724221,.00023155,87.9182,297.5888,101.9913,258.1480,0,U,55810,999,16378,.74194059E-4,.43E-6,0
ONEWEB-0648,2023-029R,2026-07-24T06:11:19.191264,13.14503920,.00026556,87.8959,282.3176,115.7554,244.3850,0,U,55811,999,16426,-.99252922E-4,-.24E-6,0
ONEWEB-0649,2023-029S,2026-07-24T07:24:14.208192,13.19723965,.00021981,87.9180,297.5819,106.5186,253.6188,0,U,55812,999,16382,-.10120002E-3,-.28E-6,0
ONEWEB-0650,2023-029T,2026-07-24T07:17:25.232928,13.19724364,.00026162,87.9184,297.5853,105.3534,254.7888,0,U,55813,999,16379,.91074142E-4,.49E-6,0
ONEWEB-0652,2023-029U,2026-07-24T05:43:55.449408,13.14502793,.00020541,87.8960,282.3283,95.1792,264.9572,0,U,55814,999,16423,-.50272239E-3,-.174E-5,0
ONEWEB-0653,2023-029V,2026-07-24T05:21:05.494464,13.14502430,.00019621,87.8963,282.3298,100.1717,259.9634,0,U,55815,999,16426,.8933003E-4,.46E-6,0
ONEWEB-0654,2023-029W,2026-07-24T05:14:14.341056,13.14502787,.0001703,87.8965,282.3270,93.6738,266.4586,0,U,55816,999,16428,.29410279E-3,.122E-5,0
ONEWEB-0656,2023-029X,2026-07-24T04:10:09.519456,13.20767879,.00020409,87.9189,267.0609,89.4100,270.7267,0,U,55817,999,16603,.8000007E-3,.338E-5,0
ONEWEB-0657,2023-029Y,2026-07-24T07:10:36.854688,13.19727153,.00019072,87.9182,297.5845,76.6033,283.5312,0,U,55818,999,16380,.18586188E-4,.2E-6,0
ONEWEB-0658,2023-029Z,2026-07-24T07:03:46.492704,13.19726773,.00024355,87.9193,297.5643,102.9534,257.1871,0,U,55819,999,16381,-.3526376E-5,.12E-6,0
ONEWEB-0660,2023-029AA,2026-07-24T04:42:16.353504,13.14502583,.00020619,87.8968,282.3273,108.9050,251.2303,0,U,55820,999,16426,.5834176E-3,.229E-5,0
ONEWEB-0661,2023-029AB,2026-07-24T05:32:30.669792,13.14502778,.00019791,87.8946,282.3583,108.1973,251.9373,0,U,55821,999,16425,-.29832018E-3,-.98E-6,0
ONEWEB-0662,2023-029AC,2026-07-24T06:22:45.406848,13.14503178,.0002052,87.8948,282.3576,108.0996,252.0358,0,U,55822,999,16430,.15958596E-3,.72E-6,0
ONEWEB-0663,2023-029AD,2026-07-24T04:54:41.441184,13.20871916,.00023195,87.9176,267.1245,106.6771,253.4617,0,U,55823,999,16603,-.9796971E-5,.9E-7,0
ONEWEB-0664,2023-029AE,2026-07-24T03:50:45.985344,13.20772298,.00017165,87.9168,267.1110,109.3753,250.7566,0,U,55824,999,16602,-.11583531E-3,-.34E-6,0
ONEWEB-0665,2023-029AF,2026-07-24T05:27:56.998656,13.14502713,.00021417,87.8952,282.3407,107.5297,252.6067,0,U,55825,999,16427,-.25660548E-3,-.82E-6,0
ONEWEB-0666,2023-029AG,2026-07-24T05:30:08.584992,13.20769548,.00022739,87.9166,267.0872,79.9361,280.2029,0,U,55826,999,16604,-.22921595E-3,-.8E-6,0
